     3.04           N: GNSS NAV DATA    G: GPS              RINEX VERSION / TYPE
RTKCONV demo5 b34i                      20250515 182755 UTC PGM / RUN BY / DATE 
format: u-blox UBX                                          COMMENT             
log: D:\20242\NGUYENDS\GNSS_DOA_Spoofing\hai\ngoc\2025-04-18COMMENT             
                                                            END OF HEADER       
G05 2025 04 18 10 00 00 -.207568518817D-03 -.102318153949D-11  .000000000000D+00
      .600000000000D+02 -.752500000000D+02  .386480384174D-08 -.315460774127D+00
     -.386498868465D-05  .569533114322D-02  .702217221260D-05  .515378963280D+04
      .468000000000D+06 -.689178705215D-07 -.274338973175D+01  .689178705215D-07
      .976202826332D+00  .252593750000D+03  .132608666412D+01 -.786104172966D-08
      .133934150324D-09  .100000000000D+01  .236200000000D+04  .000000000000D+00
      .200000000000D+01  .000000000000D+00 -.107102096081D-07  .600000000000D+02
      .467706000000D+06  .400000000000D+01
G13 2025 04 18 09 59 44  .700509175658D-03  .341060513165D-12  .000000000000D+00
      .100000000000D+01 -.244687500000D+02  .436768193148D-08 -.864142654850D+00
     -.108219683170D-05  .903287681285D-02  .750087201595D-05  .515368112373D+04
      .467984000000D+06  .651925802231D-07 -.150410165018D+01  .147148966789D-06
      .973172078466D+00  .242937500000D+03  .953344323189D+00 -.789782897628D-08
      .408588447920D-09  .100000000000D+01  .236200000000D+04  .000000000000D+00
      .200000000000D+01  .000000000000D+00 -.116415321827D-07  .100000000000D+01
      .467706000000D+06  .400000000000D+01
G20 2025 04 18 09 59 44  .364974606782D-03 -.227373675443D-12  .000000000000D+00
      .240000000000D+02 -.822812500000D+02  .429267880730D-08 -.237627185440D+01
     -.423751771450D-05  .353155017365D-02  .588595867157D-05  .515375559998D+04
      .467984000000D+06  .167638063431D-07 -.287781954451D+01 -.689178705215D-07
      .958357200704D+00  .264000000000D+03 -.226929580308D+01 -.795425989828D-08
      .807176479283D-10  .100000000000D+01  .236200000000D+04  .000000000000D+00
      .200000000000D+01  .000000000000D+00 -.838190317154D-08  .240000000000D+02
      .467706000000D+06  .400000000000D+01
G11 2025 04 18 10 00 00 -.726706348360D-03  .522959453519D-11  .000000000000D+00
      .125000000000D+03 -.129062500000D+02  .437268213976D-08 -.140812497707D+01
     -.702217221260D-06  .169811013620D-02  .276416540146D-05  .515364337349D+04
      .468000000000D+06  .117346644402D-06  .258599253379D+01 -.353902578354D-07
      .965661164464D+00  .331531250000D+03 -.238298964737D+01 -.816176854185D-08
     -.132505519387D-09  .100000000000D+01  .236200000000D+04  .000000000000D+00
      .200000000000D+01  .000000000000D+00 -.884756445885D-08  .637000000000D+03
      .467706000000D+06  .400000000000D+01
G12 2025 04 18 10 00 00 -.580558087677D-03 -.181898940355D-11  .000000000000D+00
      .700000000000D+02  .431562500000D+02  .440589780904D-08  .212179920751D+01
      .203028321266D-05  .890747737139D-02  .904686748981D-05  .515370719910D+04
      .468000000000D+06  .596046447754D-07  .514486151602D+00 -.109896063805D-06
      .960850394933D+00  .198968750000D+03  .149886345256D+01 -.770532095755D-08
     -.395373611755D-09  .100000000000D+01  .236200000000D+04  .000000000000D+00
      .200000000000D+01  .000000000000D+00 -.125728547573D-07  .700000000000D+02
      .467706000000D+06  .400000000000D+01
G15 2025 04 18 10 00 00  .286680180579D-03  .420641299570D-11  .000000000000D+00
      .550000000000D+02 -.287812500000D+02  .491841915761D-08 -.168609866706D+01
     -.116229057312D-05  .161218803842D-01  .786967575550D-05  .515356790733D+04
      .468000000000D+06  .262632966042D-06 -.181109594099D+01  .275671482086D-06
      .938475753408D+00  .209125000000D+03  .140972580298D+01 -.803283459980D-08
      .452161691492D-09  .100000000000D+01  .236200000000D+04  .000000000000D+00
      .280000000000D+01  .000000000000D+00 -.102445483208D-07  .550000000000D+02
      .467706000000D+06  .400000000000D+01
G25 2025 04 18 09 59 44  .490102451295D-03 -.102318153949D-11  .000000000000D+00
      .200000000000D+01  .356562500000D+02  .471519640686D-08  .201511964287D+01
      .155717134476D-05  .123150192667D-01  .915490090847D-05  .515364443207D+04
      .467984000000D+06 -.119209289551D-06  .424263877002D+00 -.253319740295D-06
      .949034581157D+00  .194656250000D+03  .112378207093D+01 -.786675625340D-08
     -.356800576462D-09  .100000000000D+01  .236200000000D+04  .000000000000D+00
      .200000000000D+01  .000000000000D+00  .558793544769D-08  .200000000000D+01
      .467706000000D+06  .400000000000D+01
G06 2025 04 18 10 00 00 -.311352778226D-03 -.209183781408D-10  .000000000000D+00
      .150000000000D+02 -.800000000000D+01  .389980529969D-08 -.264190697440D+01
     -.428408384323D-06  .343860557768D-02  .297091901302D-05  .515355233765D+04
      .468000000000D+06  .186264514923D-07  .256019106518D+01  .109896063805D-06
      .988909473832D+00  .338750000000D+03 -.642815863678D+00 -.794175937758D-08
     -.120004998690D-09  .100000000000D+01  .236200000000D+04  .000000000000D+00
      .200000000000D+01  .000000000000D+00  .372529029846D-08  .150000000000D+02
      .467706000000D+06  .400000000000D+01
G29 2025 04 18 10 00 00 -.516525004059D-03  .420641299570D-11  .000000000000D+00
      .176000000000D+03  .912187500000D+02  .427660670926D-08 -.651092814252D+00
      .468641519547D-05  .316844822373D-02  .540725886822D-05  .515366911507D+04
      .468000000000D+06 -.409781932831D-07  .156775337088D+01 -.819563865662D-07
      .966291677767D+00  .278843750000D+03  .262611453966D+01 -.799211861811D-08
     -.596453416107D-10  .100000000000D+01  .236200000000D+04  .000000000000D+00
      .200000000000D+01  .000000000000D+00 -.977888703346D-08  .176000000000D+03
      .467706000000D+06  .400000000000D+01
G19 2025 04 18 10 00 00  .619958154857D-03  .386535248253D-11  .000000000000D+00
      .340000000000D+02  .924062500000D+02  .443697053192D-08  .125690200146D+01
      .483728945255D-05  .103958756663D-01  .488385558128D-05  .515362915802D+04
      .468000000000D+06  .167638063431D-06  .159602537750D+01  .149011611938D-06
      .962954411991D+00  .282218750000D+03  .274465666270D+01 -.806890753096D-08
     -.171435712414D-09  .100000000000D+01  .236200000000D+04  .000000000000D+00
      .200000000000D+01  .000000000000D+00 -.153668224812D-07  .340000000000D+02
      .467226000000D+06  .400000000000D+01
G30 2025 04 18 10 00 00 -.166881829500D-03  .943600753089D-11  .000000000000D+00
      .780000000000D+02 -.130625000000D+02  .539486757503D-08  .265585325918D+01
     -.707805156708D-06  .762436666992D-02  .675208866596D-05  .515369528008D+04
      .468000000000D+06 -.242143869400D-07 -.605898303788D+00 -.141561031342D-06
      .935670438292D+00  .239000000000D+03 -.238942511470D+01 -.815355391396D-08
      .357157734196D-11  .100000000000D+01  .236200000000D+04  .000000000000D+00
      .200000000000D+01  .000000000000D+00  .372529029846D-08  .780000000000D+02
      .467706000000D+06  .400000000000D+01
